2021-06-09 13:24:13
ONEWEB-0159
1 48062U 21025W   21160.66667824 -.00028587  00000-0 -20567-1 0  9998
2 48062  87.7078 325.6039 0006349   5.0365 173.6834 13.97119189  1875
ONEWEB-0164
1 48063U 21025X   21160.66667824 -.00029315  00000-0 -20792-1 0  9999
2 48063  87.6381 325.5841 0010735   8.6246 136.9055 13.97909642  1747
ONEWEB-0167
1 48064U 21025Y   21160.66667824 -.00031140  00000-0 -20600-1 0  9997
2 48064  87.6709 325.5709 0008905  29.8346 244.1129 14.01826586  1821
ONEWEB-0166
1 48065U 21025Z   21160.66667824 -.01254055  00000-0 -75362+0 0  9994
2 48065  87.7614 325.5703 0010678   8.5389  36.3175 14.10375404  1755
ONEWEB-0151
1 48066U 21025AA  21160.66667824 -.00029783  00000-0 -21337-1 0  9997
2 48066  87.7184 325.6122 0006665   3.8248 234.3209 13.97364902  1750
ONEWEB-0170
1 48067U 21025AB  21160.02968606 -.00169883  00000-0 -10189+0 0  9997
2 48067  87.6728 325.7106 0011255  26.7170 333.4590 14.08231489 12567
ONEWEB-0168
1 48068U 21025AC  21160.66667824 -.00031020  00000-0 -22268-1 0  9990
2 48068  87.6289 325.5698 0007779  27.9053 258.2685 13.97255299  1720
ONEWEB-0173
1 48069U 21025AD  21160.91667824 -.00075596  00000-0 -35668-1 0  9993
2 48069  87.7416 325.4602 0006072  21.7178 132.8547 14.20447322 12760
ONEWEB-0171
1 48070U 21025AE  21160.66667824 -.00559171  00000-0 -40722+0 0  9998
2 48070  87.7128 325.5791 0010840  20.0041 164.4488 13.98721749  1801
ONEWEB-0172
1 48071U 21025AF  21160.66667824 -.01283867  00000-0 -41389+0 0  9996
2 48071  87.7616 325.2156 0006454  10.1771 117.5739 14.42909872  1748
ONEWEB-0174
1 48072U 21025AG  21160.91667824 -.01197701  00000-0 -59413+0 0  9993
2 48072  87.7758 325.4641 0010903 348.4951 286.0668 14.20561699 12829
ONEWEB-0175
1 48073U 21025AH  21160.91667824  .00000017  00000-0  00000+0 0  9992
2 48073  87.6022 325.4907 0009401  31.0572 128.9790 13.96775480 12673
ONEWEB-0177
1 48074U 21025AJ  21160.66667824 -.01406639  00000-0 -85116+0 0  9999
2 48074  87.7805 325.5420 0010934 350.8034  47.0867 14.10426742  1803
ONEWEB-0178
1 48075U 21025AK  21160.66667824 -.01444270  00000-0 -72979+0 0  9996
2 48075  87.8261 325.5361 0011197 351.4067  46.3634 14.19662543  1770
ONEWEB-0108
1 48076U 21025AL  21160.66667824  .00000016  00000-0  00000-0 0  9997
2 48076  87.7582 325.5846 0010156   0.7472 181.3514 14.02884579  1899
ONEWEB-0169
1 48077U 21025AM  21160.66667824 -.00031885  00000-0 -22707-1 0  9997
2 48077  87.6636 325.6079 0010794  12.7630 352.9455 13.97696487  1741
